<?xml version="1.0" encoding="UTF-8"?>
<kml xmlns="http://www.opengis.net/kml/2.2">
  <Document>
    <name>Camada sem título</name>
    <Style id="poly-FFEA00-1200-77-normal">
      <LineStyle>
        <color>ff00eaff</color>
        <width>1.2</width>
      </LineStyle>
      <PolyStyle>
        <color>4d00eaff</color>
        <fill>1</fill>
        <outline>1</outline>
      </PolyStyle>
    </Style>
    <Style id="poly-FFEA00-1200-77-highlight">
      <LineStyle>
        <color>ff00eaff</color>
        <width>1.8</width>
      </LineStyle>
      <PolyStyle>
        <color>4d00eaff</color>
        <fill>1</fill>
        <outline>1</outline>
      </PolyStyle>
    </Style>
    <StyleMap id="poly-FFEA00-1200-77">
      <Pair>
        <key>normal</key>
        <styleUrl>#poly-FFEA00-1200-77-normal</styleUrl>
      </Pair>
      <Pair>
        <key>highlight</key>
        <styleUrl>#poly-FFEA00-1200-77-highlight</styleUrl>
      </Pair>
    </StyleMap>
    <Placemark>
      <name>Zona Norte</name>
      <description>Área de atuação</description>
      <styleUrl>#poly-FFEA00-1200-77</styleUrl>
      <Polygon>
        <outerBoundaryIs>
          <LinearRing>
            <tessellate>1</tessellate>
            <coordinates>
              -46.635601,-23.5172032,0
              -46.5917493,-23.5312257,0
              -46.5811375,-23.5163447,0
              -46.5917493,-23.5027499,0
              -46.5839465,-23.468256,0
              -46.6150016,-23.4738386,0
              -46.6419993,-23.4513636,0
              -46.6569807,-23.4651068,0
              -46.7169061,-23.506757,0
              -46.635601,-23.5172032,0
            </coordinates>
          </LinearRing>
        </outerBoundaryIs>
      </Polygon>
    </Placemark>
  </Document>
</kml>
